KUIPER-00296
1 68595U 26072Y   26111.66747124  .00020701  00000+0  57592-3 0  9998
2 68595  51.8714  90.3608 0008279 171.3993 188.7137 15.36770348  2681
KUIPER-00297
1 68596U 26072Z   26111.67318173  .00030964  00000+0  86956-3 0  9996
2 68596  51.8638  90.3909 0009547 178.7497 181.3515 15.36232055  2687
KUIPER-00300
1 68597U 26072AA  26111.66528811  .00021889  00000+0  60451-3 0  9996
2 68597  51.8688  90.3451 0007840 171.4448 188.6674 15.36965497  2684
KUIPER-00301
1 68598U 26072AB  26111.66889586  .00021316  00000+0  59517-3 0  9992
2 68598  51.8666  90.3661 0008497 174.4568 185.6514 15.36636062  2682
KUIPER-00304
1 68599U 26072AC  26111.53982633  .00023531  00000+0  65757-3 0  9990
2 68599  51.8674  91.0024 0009167 174.3898 185.7192 15.36542302  2667
KUIPER-00317
1 68600U 26072AD  26111.53645382  .00005689  00000+0  16621-3 0  9990
2 68600  51.8696  90.9821 0008508 167.2378 192.8825 15.36799773  2667
KUIPER-00320
1 68601U 26072AE  26111.41540612  .00024347  00000+0  69057-3 0  9991
2 68601  51.8609  91.6597 0010993 179.5711 180.5286 15.36039635  2645
STARLINK-37135
1 68602U 26073A   26111.91668981  .00049815  00000+0  33346-3 0  9997
2 68602  97.2849 309.7730 0001189  99.7540  57.8224 15.75151317  3484
STARLINK-37189
1 68603U 26073B   26110.60531538  .00240941  00000+0  12195-2 0  9991
2 68603  97.2848 308.4283 0001644  85.4367 274.7089 15.80900459  2155
STARLINK-37130
1 68604U 26073C   26111.91668981  .00059032  00000+0  39459-3 0  9992
2 68604  97.2845 309.7971 0001574  85.5849 129.9853 15.75149786  3488
STARLINK-37131
1 68605U 26073D   26110.60381263  .00225453  00000+0  11435-2 0  9998
2 68605  97.2847 308.4301 0001466  73.0118 287.1311 15.80894935  2153
STARLINK-37253
1 68606U 26073E   26110.60306164  .00252198  00000+0  12749-2 0  9991
2 68606  97.2849 308.4311 0001390  72.8258 287.3163 15.80898927  2157
STARLINK-37246
1 68607U 26073F   26111.91668981  .00036523  00000+0  24503-3 0  9999
2 68607  97.2844 309.7820 0001534  97.2646  84.3102 15.75157410  3488
STARLINK-37243
1 68608U 26073G   26110.60155832  .00233607  00000+0  11837-2 0  9998
2 68608  97.2847 308.4333 0001057  63.0192 297.1184 15.80895339  2156
