[
  {
    "OBJECT_NAME": "KUIPER-00296",
    "OBJECT_ID": "2026-072Y",
    "EPOCH": "2026-04-21T16:01:09.515136",
    "MEAN_MOTION": 15.36770348,
    "ECCENTRICITY": 0.0008279,
    "INCLINATION": 51.8714,
    "RA_OF_ASC_NODE": 90.3608,
    "ARG_OF_PERICENTER": 171.3993,
    "MEAN_ANOMALY": 188.7137,
    "EPHEMERIS_TYPE": 0,
    "CLASSIFICATION_TYPE": "U",
    "NORAD_CAT_ID": 68595,
    "ELEMENT_SET_NO": 999,
    "REV_AT_EPOCH": 268,
    "BSTAR": 0.00057591957,
    "MEAN_MOTION_DOT": 0.00020701,
    "MEAN_MOTION_DDOT": 0
  },
  {
    "OBJECT_NAME": "KUIPER-00297",
    "OBJECT_ID": "2026-072Z",
    "EPOCH": "2026-04-21T16:09:22.901472",
    "MEAN_MOTION": 15.36232055,
    "ECCENTRICITY": 0.00095476,
    "INCLINATION": 51.8638,
    "RA_OF_ASC_NODE": 90.3909,
    "ARG_OF_PERICENTER": 178.7497,
    "MEAN_ANOMALY": 181.3515,
    "EPHEMERIS_TYPE": 0,
    "CLASSIFICATION_TYPE": "U",
    "NORAD_CAT_ID": 68596,
    "ELEMENT_SET_NO": 999,
    "REV_AT_EPOCH": 268,
    "BSTAR": 0.00086956395,
    "MEAN_MOTION_DOT": 0.00030964,
    "MEAN_MOTION_DDOT": 0
  },
  {
    "OBJECT_NAME": "KUIPER-00300",
    "OBJECT_ID": "2026-072AA",
    "EPOCH": "2026-04-21T15:58:00.892704",
    "MEAN_MOTION": 15.36965497,
    "ECCENTRICITY": 0.00078403,
    "INCLINATION": 51.8688,
    "RA_OF_ASC_NODE": 90.3451,
    "ARG_OF_PERICENTER": 171.4448,
    "MEAN_ANOMALY": 188.6674,
    "EPHEMERIS_TYPE": 0,
    "CLASSIFICATION_TYPE": "U",
    "NORAD_CAT_ID": 68597,
    "ELEMENT_SET_NO": 999,
    "REV_AT_EPOCH": 268,
    "BSTAR": 0.00060450553,
    "MEAN_MOTION_DOT": 0.00021889,
    "MEAN_MOTION_DDOT": 0
  },
  {
    "OBJECT_NAME": "KUIPER-00301",
    "OBJECT_ID": "2026-072AB",
    "EPOCH": "2026-04-21T16:03:12.602304",
    "MEAN_MOTION": 15.36636062,
    "ECCENTRICITY": 0.00084972,
    "INCLINATION": 51.8666,
    "RA_OF_ASC_NODE": 90.3661,
    "ARG_OF_PERICENTER": 174.4568,
    "MEAN_ANOMALY": 185.6514,
    "EPHEMERIS_TYPE": 0,
    "CLASSIFICATION_TYPE": "U",
    "NORAD_CAT_ID": 68598,
    "ELEMENT_SET_NO": 999,
    "REV_AT_EPOCH": 268,
    "BSTAR": 0.00059517234,
    "MEAN_MOTION_DOT": 0.00021316,
    "MEAN_MOTION_DDOT": 0
  },
  {
    "OBJECT_NAME": "KUIPER-00304",
    "OBJECT_ID": "2026-072AC",
    "EPOCH": "2026-04-21T12:57:20.994912",
    "MEAN_MOTION": 15.36542302,
    "ECCENTRICITY": 0.00091675,
    "INCLINATION": 51.8674,
    "RA_OF_ASC_NODE": 91.0024,
    "ARG_OF_PERICENTER": 174.3898,
    "MEAN_ANOMALY": 185.7192,
    "EPHEMERIS_TYPE": 0,
    "CLASSIFICATION_TYPE": "U",
    "NORAD_CAT_ID": 68599,
    "ELEMENT_SET_NO": 999,
    "REV_AT_EPOCH": 266,
    "BSTAR": 0.00065757133,
    "MEAN_MOTION_DOT": 0.00023531,
    "MEAN_MOTION_DDOT": 0
  },
  {
    "OBJECT_NAME": "KUIPER-00317",
    "OBJECT_ID": "2026-072AD",
    "EPOCH": "2026-04-21T12:52:29.610048",
    "MEAN_MOTION": 15.36799773,
    "ECCENTRICITY": 0.0008508,
    "INCLINATION": 51.8696,
    "RA_OF_ASC_NODE": 90.9821,
    "ARG_OF_PERICENTER": 167.2378,
    "MEAN_ANOMALY": 192.8825,
    "EPHEMERIS_TYPE": 0,
    "CLASSIFICATION_TYPE": "U",
    "NORAD_CAT_ID": 68600,
    "ELEMENT_SET_NO": 999,
    "REV_AT_EPOCH": 266,
    "BSTAR": 0.00016621,
    "MEAN_MOTION_DOT": 5.689e-05,
    "MEAN_MOTION_DDOT": 0
  },
  {
    "OBJECT_NAME": "KUIPER-00320",
    "OBJECT_ID": "2026-072AE",
    "EPOCH": "2026-04-21T09:58:11.088768",
    "MEAN_MOTION": 15.36039635,
    "ECCENTRICITY": 0.00109934,
    "INCLINATION": 51.8609,
    "RA_OF_ASC_NODE": 91.6597,
    "ARG_OF_PERICENTER": 179.5711,
    "MEAN_ANOMALY": 180.5286,
    "EPHEMERIS_TYPE": 0,
    "CLASSIFICATION_TYPE": "U",
    "NORAD_CAT_ID": 68601,
    "ELEMENT_SET_NO": 999,
    "REV_AT_EPOCH": 264,
    "BSTAR": 0.00069056771,
    "MEAN_MOTION_DOT": 0.00024347,
    "MEAN_MOTION_DDOT": 0
  },
  {
    "OBJECT_NAME": "STARLINK-37135",
    "OBJECT_ID": "2026-073A",
    "EPOCH": "2026-04-21T22:00:01.999584",
    "MEAN_MOTION": 15.75151317,
    "ECCENTRICITY": 0.00011897,
    "INCLINATION": 97.2849,
    "RA_OF_ASC_NODE": 309.773,
    "ARG_OF_PERICENTER": 99.754,
    "MEAN_ANOMALY": 57.8224,
    "EPHEMERIS_TYPE": 0,
    "CLASSIFICATION_TYPE": "U",
    "NORAD_CAT_ID": 68602,
    "ELEMENT_SET_NO": 999,
    "REV_AT_EPOCH": 348,
    "BSTAR": 0.00033346474,
    "MEAN_MOTION_DOT": 0.00049815,
    "MEAN_MOTION_DDOT": 0
  },
  {
    "OBJECT_NAME": "STARLINK-37189",
    "OBJECT_ID": "2026-073B",
    "EPOCH": "2026-04-20T14:31:39.248832",
    "MEAN_MOTION": 15.80900459,
    "ECCENTRICITY": 0.00016449,
    "INCLINATION": 97.2848,
    "RA_OF_ASC_NODE": 308.4283,
    "ARG_OF_PERICENTER": 85.4367,
    "MEAN_ANOMALY": 274.7089,
    "EPHEMERIS_TYPE": 0,
    "CLASSIFICATION_TYPE": "U",
    "NORAD_CAT_ID": 68603,
    "ELEMENT_SET_NO": 999,
    "REV_AT_EPOCH": 215,
    "BSTAR": 0.0012194797,
    "MEAN_MOTION_DOT": 0.00240941,
    "MEAN_MOTION_DDOT": 0
  },
  {
    "OBJECT_NAME": "STARLINK-37130",
    "OBJECT_ID": "2026-073C",
    "EPOCH": "2026-04-21T22:00:01.999584",
    "MEAN_MOTION": 15.75149786,
    "ECCENTRICITY": 0.00015741,
    "INCLINATION": 97.2845,
    "RA_OF_ASC_NODE": 309.7971,
    "ARG_OF_PERICENTER": 85.5849,
    "MEAN_ANOMALY": 129.9853,
    "EPHEMERIS_TYPE": 0,
    "CLASSIFICATION_TYPE": "U",
    "NORAD_CAT_ID": 68604,
    "ELEMENT_SET_NO": 999,
    "REV_AT_EPOCH": 348,
    "BSTAR": 0.00039459101,
    "MEAN_MOTION_DOT": 0.00059032,
    "MEAN_MOTION_DDOT": 0
  },
  {
    "OBJECT_NAME": "STARLINK-37131",
    "OBJECT_ID": "2026-073D",
    "EPOCH": "2026-04-20T14:29:29.411232",
    "MEAN_MOTION": 15.80894935,
    "ECCENTRICITY": 0.00014663,
    "INCLINATION": 97.2847,
    "RA_OF_ASC_NODE": 308.4301,
    "ARG_OF_PERICENTER": 73.0118,
    "MEAN_ANOMALY": 287.1311,
    "EPHEMERIS_TYPE": 0,
    "CLASSIFICATION_TYPE": "U",
    "NORAD_CAT_ID": 68605,
    "ELEMENT_SET_NO": 999,
    "REV_AT_EPOCH": 215,
    "BSTAR": 0.0011434718,
    "MEAN_MOTION_DOT": 0.00225453,
    "MEAN_MOTION_DDOT": 0
  },
  {
    "OBJECT_NAME": "STARLINK-37253",
    "OBJECT_ID": "2026-073E",
    "EPOCH": "2026-04-20T14:28:24.525696",
    "MEAN_MOTION": 15.80898927,
    "ECCENTRICITY": 0.00013901,
    "INCLINATION": 97.2849,
    "RA_OF_ASC_NODE": 308.4311,
    "ARG_OF_PERICENTER": 72.8258,
    "MEAN_ANOMALY": 287.3163,
    "EPHEMERIS_TYPE": 0,
    "CLASSIFICATION_TYPE": "U",
    "NORAD_CAT_ID": 68606,
    "ELEMENT_SET_NO": 999,
    "REV_AT_EPOCH": 215,
    "BSTAR": 0.0012748557,
    "MEAN_MOTION_DOT": 0.00252198,
    "MEAN_MOTION_DDOT": 0
  },
  {
    "OBJECT_NAME": "STARLINK-37246",
    "OBJECT_ID": "2026-073F",
    "EPOCH": "2026-04-21T22:00:01.999584",
    "MEAN_MOTION": 15.7515741,
    "ECCENTRICITY": 0.00015344,
    "INCLINATION": 97.2844,
    "RA_OF_ASC_NODE": 309.782,
    "ARG_OF_PERICENTER": 97.2646,
    "MEAN_ANOMALY": 84.3102,
    "EPHEMERIS_TYPE": 0,
    "CLASSIFICATION_TYPE": "U",
    "NORAD_CAT_ID": 68607,
    "ELEMENT_SET_NO": 999,
    "REV_AT_EPOCH": 348,
    "BSTAR": 0.00024502931,
    "MEAN_MOTION_DOT": 0.00036523,
    "MEAN_MOTION_DDOT": 0
  },
  {
    "OBJECT_NAME": "STARLINK-37243",
    "OBJECT_ID": "2026-073G",
    "EPOCH": "2026-04-20T14:26:14.638848",
    "MEAN_MOTION": 15.80895339,
    "ECCENTRICITY": 0.00010574,
    "INCLINATION": 97.2847,
    "RA_OF_ASC_NODE": 308.4333,
    "ARG_OF_PERICENTER": 63.0192,
    "MEAN_ANOMALY": 297.1184,
    "EPHEMERIS_TYPE": 0,
    "CLASSIFICATION_TYPE": "U",
    "NORAD_CAT_ID": 68608,
    "ELEMENT_SET_NO": 999,
    "REV_AT_EPOCH": 215,
    "BSTAR": 0.0011836656,
    "MEAN_MOTION_DOT": 0.00233607,
    "MEAN_MOTION_DDOT": 0
  }
]